[{"OBJECT_NAME":"SDA_1679","OBJECT_ID":"2025-230R","EPOCH":"2026-03-09T17:52:28.680096","MEAN_MOTION":13.85334515,"ECCENTRICITY":0.0004897,"INCLINATION":81.3013,"RA_OF_ASC_NODE":303.8521,"ARG_OF_PERICENTER":108.9978,"MEAN_ANOMALY":251.171,"EPHEMERIS_TYPE":0,"CLASSIFICATION_TYPE":"U","NORAD_CAT_ID":65989,"ELEMENT_SET_NO":999,"REV_AT_EPOCH":2005,"BSTAR":0.00022111439,"MEAN_MOTION_DOT":2.63e-6,"MEAN_MOTION_DDOT":0},{"OBJECT_NAME":"DELTA 1 DEB","OBJECT_ID":"1978-026G","EPOCH":"2026-03-09T21:00:04.733856","MEAN_MOTION":14.15955145,"ECCENTRICITY":0.01594881,"INCLINATION":98.7484,"RA_OF_ASC_NODE":17.2698,"ARG_OF_PERICENTER":108.9497,"MEAN_ANOMALY":320.3759,"EPHEMERIS_TYPE":0,"CLASSIFICATION_TYPE":"U","NORAD_CAT_ID":12167,"ELEMENT_SET_NO":999,"REV_AT_EPOCH":31783,"BSTAR":0.00033296302,"MEAN_MOTION_DOT":7.01e-6,"MEAN_MOTION_DDOT":0}]
